[
  {
    "name": "ONEWEB-0685",
    "noradId": "54679",
    "line1": "1 54679U 22166AP  26192.61785119  .00000023  00000+0  24727-4 0  9996",
    "line2": "2 54679  87.9234 239.1179 0001852  89.6900 270.4447 13.21847817174648"
  },
  {
    "name": "ONEWEB-0712",
    "noradId": "54680",
    "line1": "1 54680U 22166AQ  26192.60702814  .00000175  00000+0  42446-3 0  9993",
    "line2": "2 54680  87.9085 223.9234 0001708 108.3184 251.8133 13.16595634175276"
  },
  {
    "name": "ONEWEB-0714",
    "noradId": "54681",
    "line1": "1 54681U 22166AR  26192.62322392 -.00000072  00000+0 -20470-3 0  9996",
    "line2": "2 54681  87.9235 239.1153 0002074 105.8875 254.2488 13.21825037174761"
  },
  {
    "name": "ONEWEB-0532",
    "noradId": "55140",
    "line1": "1 55140U 23004A   26192.86363200  .00000086  00000+0  18805-3 0  9990",
    "line2": "2 55140  87.9132   0.9539 0001876  80.1107 280.0236 13.17649370170833"
  },
  {
    "name": "ONEWEB-0533",
    "noradId": "55141",
    "line1": "1 55141U 23004B   26192.85329789 -.00000084  00000+0 -26777-3 0  9991",
    "line2": "2 55141  87.8958 345.7652 0001630  92.7811 267.3504 13.12443517171291"
  },
  {
    "name": "ONEWEB-0541",
    "noradId": "55142",
    "line1": "1 55142U 23004C   26192.52097280 -.00000030  00000+0 -12108-3 0  9998",
    "line2": "2 55142  87.8885  16.2133 0002041  90.9210 269.2152 13.11414482169133"
  },
  {
    "name": "ONEWEB-0543",
    "noradId": "55143",
    "line1": "1 55143U 23004D   26192.82373260  .00000011  00000+0 -46758-5 0  9995",
    "line2": "2 55143  87.9183 330.5685 0001841 104.3349 255.7988 13.18686464172948"
  },
  {
    "name": "ONEWEB-0544",
    "noradId": "55144",
    "line1": "1 55144U 23004E   26192.81698675 -.00000060  00000+0 -18551-3 0  9998",
    "line2": "2 55144  87.9184 330.5695 0002048 102.4433 257.6928 13.18686426172947"
  },
  {
    "name": "ONEWEB-0560",
    "noradId": "55145",
    "line1": "1 55145U 23004F   26192.81024039 -.00000023  00000+0 -91844-4 0  9992",
    "line2": "2 55145  87.9173 330.5602 0002050 106.1097 254.0261 13.18683684172959"
  },
  {
    "name": "ONEWEB-0565",
    "noradId": "55146",
    "line1": "1 55146U 23004G   26192.80350470  .00000105  00000+0  23279-3 0  9998",
    "line2": "2 55146  87.9139 330.5856 0001938  94.8117 265.3237 13.18687638172943"
  },
  {
    "name": "ONEWEB-0567",
    "noradId": "55147",
    "line1": "1 55147U 23004H   26192.79675647  .00000062  00000+0  12568-3 0  9994",
    "line2": "2 55147  87.9185 330.5748 0002262  98.5300 261.6088 13.18687416172948"
  },
  {
    "name": "ONEWEB-0569",
    "noradId": "55148",
    "line1": "1 55148U 23004J   26192.84201091 -.00000148  00000+0 -44038-3 0  9993",
    "line2": "2 55148  87.8985 315.3145 0002672 114.1033 246.0375 13.13471781173411"
  },
  {
    "name": "ONEWEB-0570",
    "noradId": "55149",
    "line1": "1 55149U 23004K   26192.86420084  .00000077  00000+0  16248-3 0  9992",
    "line2": "2 55149  87.9183 330.5589 0002107  86.6398 273.4975 13.18687125172947"
  },
  {
    "name": "ONEWEB-0571",
    "noradId": "55150",
    "line1": "1 55150U 23004L   26192.85746747 -.00000022  00000+0 -89045-4 0  9998",
    "line2": "2 55150  87.9184 330.5598 0003137 103.5153 256.6328 13.18685710172956"
  },
  {
    "name": "ONEWEB-0572",
    "noradId": "55151",
    "line1": "1 55151U 23004M   26192.51517056  .00000023  00000+0  26415-4 0  9992",
    "line2": "2 55151  87.9138   1.0251 0002005  92.2805 267.8556 13.17650860170685"
  },
  {
    "name": "ONEWEB-0573",
    "noradId": "55152",
    "line1": "1 55152U 23004N   26192.85070017 -.00000016  00000+0 -73627-4 0  9992",
    "line2": "2 55152  87.9186 330.5629 0002796  98.3824 261.7625 13.18687484172947"
  }
]