{"fetched_at":"2026-07-12T05:52:33.815Z","source":"https://celestrak.org/NORAD/elements/gp.php?GROUP=oneweb&FORMAT=JSON","constellation":"oneweb","records":[{"OBJECT_NAME":"ONEWEB-0685","OBJECT_ID":"2022-166AP","EPOCH":"2026-07-11T14:49:42.342816","CLASSIFICATION_TYPE":"U","MEAN_MOTION":13.21847817,"ECCENTRICITY":0.0001852,"INCLINATION":87.9234,"RA_OF_ASC_NODE":239.1179,"ARG_OF_PERICENTER":89.69,"MEAN_ANOMALY":270.4447,"EPHEMERIS_TYPE":0,"NORAD_CAT_ID":54679,"ELEMENT_SET_NO":999,"REV_AT_EPOCH":17464,"BSTAR":0.000024727,"MEAN_MOTION_DOT":2.3e-7,"MEAN_MOTION_DDOT":0},{"OBJECT_NAME":"ONEWEB-0712","OBJECT_ID":"2022-166AQ","EPOCH":"2026-07-11T14:34:07.231296","CLASSIFICATION_TYPE":"U","MEAN_MOTION":13.16595634,"ECCENTRICITY":0.0001708,"INCLINATION":87.9085,"RA_OF_ASC_NODE":223.9234,"ARG_OF_PERICENTER":108.3184,"MEAN_ANOMALY":251.8133,"EPHEMERIS_TYPE":0,"NORAD_CAT_ID":54680,"ELEMENT_SET_NO":999,"REV_AT_EPOCH":17527,"BSTAR":0.00042446,"MEAN_MOTION_DOT":0.00000175,"MEAN_MOTION_DDOT":0},{"OBJECT_NAME":"ONEWEB-0714","OBJECT_ID":"2022-166AR","EPOCH":"2026-07-11T14:57:26.546688","CLASSIFICATION_TYPE":"U","MEAN_MOTION":13.21825037,"ECCENTRICITY":0.0002074,"INCLINATION":87.9235,"RA_OF_ASC_NODE":239.1153,"ARG_OF_PERICENTER":105.8875,"MEAN_ANOMALY":254.2488,"EPHEMERIS_TYPE":0,"NORAD_CAT_ID":54681,"ELEMENT_SET_NO":999,"REV_AT_EPOCH":17476,"BSTAR":-0.0002047,"MEAN_MOTION_DOT":-7.2e-7,"MEAN_MOTION_DDOT":0},{"OBJECT_NAME":"ONEWEB-0532","OBJECT_ID":"2023-004A","EPOCH":"2026-07-11T20:43:37.804800","CLASSIFICATION_TYPE":"U","MEAN_MOTION":13.1764937,"ECCENTRICITY":0.0001876,"INCLINATION":87.9132,"RA_OF_ASC_NODE":0.9539,"ARG_OF_PERICENTER":80.1107,"MEAN_ANOMALY":280.0236,"EPHEMERIS_TYPE":0,"NORAD_CAT_ID":55140,"ELEMENT_SET_NO":999,"REV_AT_EPOCH":17083,"BSTAR":0.00018805,"MEAN_MOTION_DOT":8.6e-7,"MEAN_MOTION_DDOT":0},{"OBJECT_NAME":"ONEWEB-0533","OBJECT_ID":"2023-004B","EPOCH":"2026-07-11T20:28:44.937696","CLASSIFICATION_TYPE":"U","MEAN_MOTION":13.12443517,"ECCENTRICITY":0.000163,"INCLINATION":87.8958,"RA_OF_ASC_NODE":345.7652,"ARG_OF_PERICENTER":92.7811,"MEAN_ANOMALY":267.3504,"EPHEMERIS_TYPE":0,"NORAD_CAT_ID":55141,"ELEMENT_SET_NO":999,"REV_AT_EPOCH":17129,"BSTAR":-0.00026777,"MEAN_MOTION_DOT":-8.4e-7,"MEAN_MOTION_DDOT":0},{"OBJECT_NAME":"ONEWEB-0541","OBJECT_ID":"2023-004C","EPOCH":"2026-07-11T12:30:12.049920","CLASSIFICATION_TYPE":"U","MEAN_MOTION":13.11414482,"ECCENTRICITY":0.00020415,"INCLINATION":87.8885,"RA_OF_ASC_NODE":16.2133,"ARG_OF_PERICENTER":90.921,"MEAN_ANOMALY":269.2152,"EPHEMERIS_TYPE":0,"NORAD_CAT_ID":55142,"ELEMENT_SET_NO":999,"REV_AT_EPOCH":16913,"BSTAR":-0.00012107833,"MEAN_MOTION_DOT":-3e-7,"MEAN_MOTION_DDOT":0},{"OBJECT_NAME":"ONEWEB-0543","OBJECT_ID":"2023-004D","EPOCH":"2026-07-11T19:46:10.496640","CLASSIFICATION_TYPE":"U","MEAN_MOTION":13.18686464,"ECCENTRICITY":0.0001841,"INCLINATION":87.9183,"RA_OF_ASC_NODE":330.5685,"ARG_OF_PERICENTER":104.3349,"MEAN_ANOMALY":255.7988,"EPHEMERIS_TYPE":0,"NORAD_CAT_ID":55143,"ELEMENT_SET_NO":999,"REV_AT_EPOCH":17294,"BSTAR":-0.0000046758,"MEAN_MOTION_DOT":1.1e-7,"MEAN_MOTION_DDOT":0},{"OBJECT_NAME":"ONEWEB-0544","OBJECT_ID":"2023-004E","EPOCH":"2026-07-11T19:36:27.655200","CLASSIFICATION_TYPE":"U","MEAN_MOTION":13.18686426,"ECCENTRICITY":0.0002048,"INCLINATION":87.9184,"RA_OF_ASC_NODE":330.5695,"ARG_OF_PERICENTER":102.4433,"MEAN_ANOMALY":257.6928,"EPHEMERIS_TYPE":0,"NORAD_CAT_ID":55144,"ELEMENT_SET_NO":999,"REV_AT_EPOCH":17294,"BSTAR":-0.00018551,"MEAN_MOTION_DOT":-6e-7,"MEAN_MOTION_DDOT":0},{"OBJECT_NAME":"ONEWEB-0560","OBJECT_ID":"2023-004F","EPOCH":"2026-07-11T19:26:44.769696","CLASSIFICATION_TYPE":"U","MEAN_MOTION":13.18683684,"ECCENTRICITY":0.000205,"INCLINATION":87.9173,"RA_OF_ASC_NODE":330.5602,"ARG_OF_PERICENTER":106.1097,"MEAN_ANOMALY":254.0261,"EPHEMERIS_TYPE":0,"NORAD_CAT_ID":55145,"ELEMENT_SET_NO":999,"REV_AT_EPOCH":17295,"BSTAR":-0.000091844,"MEAN_MOTION_DOT":-2.3e-7,"MEAN_MOTION_DDOT":0},{"OBJECT_NAME":"ONEWEB-0565","OBJECT_ID":"2023-004G","EPOCH":"2026-07-11T19:17:02.806080","CLASSIFICATION_TYPE":"U","MEAN_MOTION":13.18687638,"ECCENTRICITY":0.0001938,"INCLINATION":87.9139,"RA_OF_ASC_NODE":330.5856,"ARG_OF_PERICENTER":94.8117,"MEAN_ANOMALY":265.3237,"EPHEMERIS_TYPE":0,"NORAD_CAT_ID":55146,"ELEMENT_SET_NO":999,"REV_AT_EPOCH":17294,"BSTAR":0.00023279,"MEAN_MOTION_DOT":0.00000105,"MEAN_MOTION_DDOT":0},{"OBJECT_NAME":"ONEWEB-0567","OBJECT_ID":"2023-004H","EPOCH":"2026-07-11T19:07:19.759008","CLASSIFICATION_TYPE":"U","MEAN_MOTION":13.18687416,"ECCENTRICITY":0.0002262,"INCLINATION":87.9185,"RA_OF_ASC_NODE":330.5748,"ARG_OF_PERICENTER":98.53,"MEAN_ANOMALY":261.6088,"EPHEMERIS_TYPE":0,"NORAD_CAT_ID":55147,"ELEMENT_SET_NO":999,"REV_AT_EPOCH":17294,"BSTAR":0.00012568,"MEAN_MOTION_DOT":6.2e-7,"MEAN_MOTION_DDOT":0},{"OBJECT_NAME":"ONEWEB-0569","OBJECT_ID":"2023-004J","EPOCH":"2026-07-11T20:12:29.742624","CLASSIFICATION_TYPE":"U","MEAN_MOTION":13.13471781,"ECCENTRICITY":0.0002672,"INCLINATION":87.8985,"RA_OF_ASC_NODE":315.3145,"ARG_OF_PERICENTER":114.1033,"MEAN_ANOMALY":246.0375,"EPHEMERIS_TYPE":0,"NORAD_CAT_ID":55148,"ELEMENT_SET_NO":999,"REV_AT_EPOCH":17341,"BSTAR":-0.00044038,"MEAN_MOTION_DOT":-0.00000148,"MEAN_MOTION_DDOT":0},{"OBJECT_NAME":"ONEWEB-0570","OBJECT_ID":"2023-004K","EPOCH":"2026-07-11T20:44:26.952576","CLASSIFICATION_TYPE":"U","MEAN_MOTION":13.18687125,"ECCENTRICITY":0.0002107,"INCLINATION":87.9183,"RA_OF_ASC_NODE":330.5589,"ARG_OF_PERICENTER":86.6398,"MEAN_ANOMALY":273.4975,"EPHEMERIS_TYPE":0,"NORAD_CAT_ID":55149,"ELEMENT_SET_NO":999,"REV_AT_EPOCH":17294,"BSTAR":0.00016248,"MEAN_MOTION_DOT":7.7e-7,"MEAN_MOTION_DDOT":0},{"OBJECT_NAME":"ONEWEB-0571","OBJECT_ID":"2023-004L","EPOCH":"2026-07-11T20:34:45.189408","CLASSIFICATION_TYPE":"U","MEAN_MOTION":13.1868571,"ECCENTRICITY":0.0003137,"INCLINATION":87.9184,"RA_OF_ASC_NODE":330.5598,"ARG_OF_PERICENTER":103.5153,"MEAN_ANOMALY":256.6328,"EPHEMERIS_TYPE":0,"NORAD_CAT_ID":55150,"ELEMENT_SET_NO":999,"REV_AT_EPOCH":17295,"BSTAR":-0.000089045,"MEAN_MOTION_DOT":-2.2e-7,"MEAN_MOTION_DDOT":0},{"OBJECT_NAME":"ONEWEB-0572","OBJECT_ID":"2023-004M","EPOCH":"2026-07-11T12:21:50.736384","CLASSIFICATION_TYPE":"U","MEAN_MOTION":13.1765086,"ECCENTRICITY":0.00020059,"INCLINATION":87.9138,"RA_OF_ASC_NODE":1.0251,"ARG_OF_PERICENTER":92.2805,"MEAN_ANOMALY":267.8556,"EPHEMERIS_TYPE":0,"NORAD_CAT_ID":55151,"ELEMENT_SET_NO":999,"REV_AT_EPOCH":17068,"BSTAR":0.000026415019,"MEAN_MOTION_DOT":2.3e-7,"MEAN_MOTION_DDOT":0},{"OBJECT_NAME":"ONEWEB-0573","OBJECT_ID":"2023-004N","EPOCH":"2026-07-11T20:25:00.494688","CLASSIFICATION_TYPE":"U","MEAN_MOTION":13.18687484,"ECCENTRICITY":0.0002796,"INCLINATION":87.9186,"RA_OF_ASC_NODE":330.5629,"ARG_OF_PERICENTER":98.3824,"MEAN_ANOMALY":261.7625,"EPHEMERIS_TYPE":0,"NORAD_CAT_ID":55152,"ELEMENT_SET_NO":999,"REV_AT_EPOCH":17294,"BSTAR":-0.000073627,"MEAN_MOTION_DOT":-1.6e-7,"MEAN_MOTION_DDOT":0}]}
